H1 CPF  1  DLR 2021 11 23 10  8272 technosat            
H2  1704205 6203    42829 2021 11 23 00 00 00 2021 11 30 00 00 00    60 1 1  0 0 0
H9
10 0 59543  36000.000000  0       6332472.194      -2896886.169        188520.993
10 0 59543  36060.000000  0       6270357.755      -2966494.287        638047.358
10 0 59543  36120.000000  0       6181167.659      -3022891.473       1084855.224
10 0 59543  36180.000000  0       6065397.337      -3065604.580       1527040.913
10 0 59543  36240.000000  0       5923659.996      -3094223.968       1962720.942
10 0 59543  36300.000000  0       5756683.288      -3108406.255       2390040.267
10 0 59543  36360.000000  0       5565305.498      -3107876.761       2807180.493
10 0 59543  36420.000000  0       5350471.084      -3092431.500       3212367.921
10 0 59543  36480.000000  0       5113225.704      -3061938.797       3603881.218
10 0 59543  36540.000000  0       4854710.890      -3016340.586       3980058.782
10 0 59543  36600.000000  0       4576158.337      -2955653.333       4339305.869
10 0 59543  36660.000000  0       4278883.787      -2879968.626       4680101.449
10 0 59543  36720.000000  0       3964280.436      -2789453.351       5001004.692
10 0 59543  36780.000000  0       3633812.028      -2684349.445       5300660.954
10 0 59543  36840.000000  0       3289005.749      -2564973.242       5577807.320
10 0 59543  36900.000000  0       2931444.942      -2431714.488       5831277.714
10 0 59543  36960.000000  0       2562761.628      -2285035.010       6060007.618
10 0 59543  37020.000000  0       2184628.841      -2125467.030       6263038.285
10 0 59543  37080.000000  0       1798752.910      -1953611.130       6439520.480
10 0 59543  37140.000000  0       1406865.650      -1770133.911       6588717.799
10 0 59543  37200.000000  0       1010716.472      -1575765.299       6710009.452
10 0 59543  37260.000000  0        612064.556      -1371295.552       6802892.551
10 0 59543  37320.000000  0        212671.062      -1157571.980       6866983.970
10 0 59543  37380.000000  0       -185708.635       -935495.363       6902021.686
10 0 59543  37440.000000  0       -581332.556       -706016.150       6907865.630
10 0 59543  37500.000000  0       -972479.649       -470130.400       6884498.160
10 0 59543  37560.000000  0      -1357457.212       -228875.448       6832023.997
10 0 59543  37620.000000  0      -1734608.106         16674.637       6750669.695
10 0 59543  37680.000000  0      -2102317.793        265413.793       6640782.677
10 0 59543  37740.000000  0      -2459021.183        516208.902       6502829.794
10 0 59543  37800.000000  0      -2803209.244        767904.898       6337395.403
10 0 59543  37860.000000  0      -3133435.333       1019330.006       6145179.034
10 0 59543  37920.000000  0      -3448321.299       1269301.141       5926992.596
10 0 59543  37980.000000  0      -3746563.281       1516629.407       5683757.114
10 0 59543  38040.000000  0      -4026937.178       1760125.692       5416499.036
10 0 59543  38100.000000  0      -4288303.805       1998606.357       5126346.095
10 0 59543  38160.000000  0      -4529613.651       2230898.961       4814522.690
10 0 59543  38220.000000  0      -4749911.212       2455847.990       4482344.835
10 0 59543  38280.000000  0      -4948338.867       2672320.568       4131214.729
10 0 59543  38340.000000  0      -5124140.372       2879212.107       3762614.990
10 0 59543  38400.000000  0      -5276663.879       3075451.894       3378102.475
10 0 59543  38460.000000  0      -5405364.470       3260008.593       2979301.803
10 0 59543  38520.000000  0      -5509806.246       3431895.608       2567898.564
10 0 59543  38580.000000  0      -5589663.922       3590176.340       2145632.196
10 0 59543  38640.000000  0      -5644723.850       3733969.218       1714288.545
10 0 59543  38700.000000  0      -5674884.551       3862452.454       1275692.208
10 0 59543  38760.000000  0      -5680156.639       3974868.543        831698.646
10 0 59543  38820.000000  0      -5660662.196       4070528.482        384186.300
10 0 59543  38880.000000  0      -5616633.755       4148815.722        -64951.504
10 0 59543  38940.000000  0      -5548412.656       4209189.726       -513814.754
10 0 59543  39000.000000  0      -5456446.924       4251189.228       -960504.912
10 0 59543  39060.000000  0      -5341288.652       4274435.137      -1403133.186
10 0 59543  39120.000000  0      -5203590.801       4278632.964      -1839828.742
10 0 59543  39180.000000  0      -5044103.522       4263574.810      -2268746.744
10 0 59543  39240.000000  0      -4863670.062       4229140.966      -2688076.227
10 0 59543  39300.000000  0      -4663222.277       4175301.098      -3096047.819
10 0 59543  39360.000000  0      -4443775.720       4102114.968      -3490941.274
10 0 59543  39420.000000  0      -4206424.360       4009732.691      -3871092.647
10 0 59543  39480.000000  0      -3952335.067       3898394.660      -4234901.214
10 0 59543  39540.000000  0      -3682741.730       3768430.999      -4580836.157
10 0 59543  39600.000000  0      -3398939.125       3620260.525      -4907442.773
10 0 59543  39660.000000  0      -3102276.710       3454389.389      -5213348.355
10 0 59543  39720.000000  0      -2794152.200       3271409.343      -5497267.795
10 0 59543  39780.000000  0      -2476004.931       3071995.584      -5758008.815
10 0 59543  39840.000000  0      -2149309.092       2856904.187      -5994476.766
10 0 59543  39900.000000  0      -1815566.861       2626969.148      -6205678.990
10 0 59543  39960.000000  0      -1476301.510       2383099.066      -6390728.698
10 0 59543  40020.000000  0      -1133050.533       2126273.538      -6548848.401
10 0 59543  40080.000000  0       -787358.802       1857539.296      -6679372.996
10 0 59543  40140.000000  0       -440771.654       1578005.923      -6781752.417
10 0 59543  40200.000000  0        -94828.152       1288841.304      -6855553.697
10 0 59543  40260.000000  0        248945.543        991266.893      -6900462.760
10 0 59543  40320.000000  0        589042.821        686552.680      -6916285.821
10 0 59543  40380.000000  0        923983.202        376011.851      -6902950.258
10 0 59543  40440.000000  0       1252318.712         60995.202      -6860504.927
10 0 59543  40500.000000  0       1572640.039       -257114.617      -6789120.033
10 0 59543  40560.000000  0       1883582.478       -576909.013      -6689086.573
10 0 59543  40620.000000  0       2183831.691       -896959.553      -6560815.439
10 0 59543  40680.000000  0       2472129.341      -1215824.281      -6404835.962
10 0 59543  40740.000000  0       2747278.366      -1532054.084      -6221793.917
10 0 59543  40800.000000  0       3008147.975      -1844199.140      -6012449.221
10 0 59543  40860.000000  0       3253678.435      -2150815.538      -5777673.220
10 0 59543  40920.000000  0       3482885.631      -2450472.045      -5518445.440
10 0 59543  40980.000000  0       3694865.235      -2741756.877      -5235849.737
10 0 59543  41040.000000  0       3888796.434      -3023284.446      -4931069.998
10 0 59543  41100.000000  0       4063945.283      -3293702.014      -4605385.415
10 0 59543  41160.000000  0       4219667.666      -3551696.272      -4260165.383
10 0 59543  41220.000000  0       4355411.911      -3795999.854      -3896864.006
10 0 59543  41280.000000  0       4470721.000      -4025397.739      -3517014.151
10 0 59543  41340.000000  0       4565234.328      -4238733.493      -3122221.080
10 0 59543  41400.000000  0       4638688.983      -4434915.275      -2714155.669
10 0 59543  41460.000000  0       4690920.553      -4612921.555      -2294547.331
10 0 59543  41520.000000  0       4721863.499      -4771806.649      -1865176.645
10 0 59543  41580.000000  0       4731550.964      -4910705.916      -1427867.576
10 0 59543  41640.000000  0       4720114.075      -5028840.504       -984479.529
10 0 59543  41700.000000  0       4687780.788      -5125521.758       -536899.180
10 0 59543  41760.000000  0       4634874.201      -5200155.148        -87032.132
10 0 59543  41820.000000  0       4561810.426      -5252243.766        363205.463
10 0 59543  41880.000000  0       4469096.032      -5281391.403        811895.423
10 0 59543  41940.000000  0       4357324.965      -5287305.059       1257126.132
10 0 59543  42000.000000  0       4227174.991      -5269796.867       1697001.036
10 0 59543  42060.000000  0       4079403.755      -5228785.545       2129646.985
10 0 59543  42120.000000  0       3914844.493      -5164297.375       2553222.465
10 0 59543  42180.000000  0       3734401.410      -5076466.623       2965925.719
10 0 59543  42240.000000  0       3539044.683      -4965535.378       3366002.659
10 0 59543  42300.000000  0       3329805.169      -4831852.843       3751754.480
10 0 59543  42360.000000  0       3107768.890      -4675874.123       4121544.955
10 0 59543  42420.000000  0       2874071.329      -4498158.490       4473807.455
10 0 59543  42480.000000  0       2629891.490      -4299367.136       4807051.610
10 0 59543  42540.000000  0       2376445.832      -4080260.446       5119869.507
10 0 59543  42600.000000  0       2114982.140      -3841694.863       5410941.561
10 0 59543  42660.000000  0       1846773.241      -3584619.238       5679041.991
10 0 59543  42720.000000  0       1573110.687      -3310070.720       5923043.762
10 0 59543  42780.000000  0       1295298.474      -3019170.326       6141923.039
10 0 59543  42840.000000  0       1014646.780      -2713118.165       6334763.219
10 0 59543  42900.000000  0        732465.749      -2393188.293       6500758.510
10 0 59543  42960.000000  0        450059.353      -2060723.231       6639216.965
10 0 59543  43020.000000  0        168719.433      -1717128.260       6749563.075
10 0 59543  43080.000000  0       -110280.147      -1363865.419       6831339.997
10 0 59543  43140.000000  0       -385689.229      -1002447.157       6884211.230
99
